{"MX": {"fmt": "%N%n%O%n%A%n%D%n%Z %C, %S", "id": "data/MX", "key": "MX", "lang": "es", "languages": "es", "name": "MEXICO", "posturl": "http://www.correosdemexico.gob.mx/ServiciosLinea/Paginas/ccpostales.aspx", "require": "ACZ", "state_name_type": "state", "sub_isoids": "AGU~BCN~BCS~CAM~CHP~CHH~CMX~COA~COL~DUR~MEX~GUA~GRO~HID~JAL~MIC~MOR~NAY~NLE~OAX~PUE~QUE~ROO~SLP~SIN~SON~TAB~TAM~TLA~VER~YUC~ZAC", "sub_keys": "AGS~BC~BCS~CAMP~CHIS~CHIH~CDMX~COAH~COL~DGO~MEX~GTO~GRO~HGO~JAL~MICH~MOR~NAY~NL~OAX~PUE~QRO~QROO~SLP~SIN~SON~TAB~TAMPS~TLAX~VER~YUC~ZAC", "sub_names": "Aguascalientes~Baja California~Baja California Sur~Campeche~Chiapas~Chihuahua~Ciudad de México~Coahuila~Colima~Durango~Estado de México~Guanajuato~Guerrero~Hidalgo~Jalisco~Michoacán~Morelos~Nayarit~Nuevo León~Oaxaca~Puebla~Querétaro~Quintana Roo~San Luis Potosí~Sinaloa~Sonora~Tabasco~Tamaulipas~Tlaxcala~Veracruz~Yucatán~Zacatecas", "sub_zipexs": "20000,20999~21000,22999~23000,23999~24000,24999~29000,30999~31000,33999~00000,16999~25000,27999~28000,28999~34000,35999~50000,57999~36000,38999~39000,41999~42000,43999~44000,49999~58000,61999~62000,62999~63000,63999~64000,67999~68000,71999~72000,75999~76000,76999~77000,77999~78000,79999~80000,82999~83000,85999~86000,86999~87000,89999~90000,90999~91000,96999~97000,97999~98000,99999", "sub_zips": "20~2[12]~23~24~29|30~3[1-3]~0|1[0-6]~2[5-7]~28~3[45]~5[0-7]~3[6-8]~39|4[01]~4[23]~4[4-9]~5[89]|6[01]~62~63~6[4-7]~6[89]|7[01]~7[2-5]~76~77~7[89]~8[0-2]~8[3-5]~86~8[7-9]~90~9[1-6]~97~9[89]", "sublocality_name_type": "neighborhood", "upper": "CSZ", "zip": "\\d{5}", "zipex": "02860,77520,06082"}, "MX/AGS": {"id": "data/MX/AGS", "isoid": "AGU", "key": "AGS", "lang": "es", "name": "Aguascalientes", "zip": "20", "zipex": "20000,20999"}, "MX/BC": {"id": "data/MX/BC", "isoid": "BCN", "key": "BC", "lang": "es", "name": "Baja California", "zip": "2[12]", "zipex": "21000,22999"}, "MX/BCS": {"id": "data/MX/BCS", "isoid": "BCS", "key": "BCS", "lang": "es", "name": "Baja California Sur", "zip": "23", "zipex": "23000,23999"}, "MX/CAMP": {"id": "data/MX/CAMP", "isoid": "CAM", "key": "CAMP", "lang": "es", "name": "Campeche", "zip": "24", "zipex": "24000,24999"}, "MX/CDMX": {"id": "data/MX/CDMX", "isoid": "CMX", "key": "CDMX", "lang": "es", "name": "Ciudad de México", "zip": "0|1[0-6]", "zipex": "00000,16999"}, "MX/CHIH": {"id": "data/MX/CHIH", "isoid": "CHH", "key": "CHIH", "lang": "es", "name": "Chihuahua", "zip": "3[1-3]", "zipex": "31000,33999"}, "MX/CHIS": {"id": "data/MX/CHIS", "isoid": "CHP", "key": "CHIS", "lang": "es", "name": "Chiapas", "zip": "29|30", "zipex": "29000,30999"}, "MX/COAH": {"id": "data/MX/COAH", "isoid": "COA", "key": "COAH", "lang": "es", "name": "Coahuila", "zip": "2[5-7]", "zipex": "25000,27999"}, "MX/COL": {"id": "data/MX/COL", "isoid": "COL", "key": "COL", "lang": "es", "name": "Colima", "zip": "28", "zipex": "28000,28999"}, "MX/DGO": {"id": "data/MX/DGO", "isoid": "DUR", "key": "DGO", "lang": "es", "name": "Durango", "zip": "3[45]", "zipex": "34000,35999"}, "MX/GRO": {"id": "data/MX/GRO", "isoid": "GRO", "key": "GRO", "lang": "es", "name": "Guerrero", "zip": "39|4[01]", "zipex": "39000,41999"}, "MX/GTO": {"id": "data/MX/GTO", "isoid": "GUA", "key": "GTO", "lang": "es", "name": "Guanajuato", "zip": "3[6-8]", "zipex": "36000,38999"}, "MX/HGO": {"id": "data/MX/HGO", "isoid": "HID", "key": "HGO", "lang": "es", "name": "Hidalgo", "zip": "4[23]", "zipex": "42000,43999"}, "MX/JAL": {"id": "data/MX/JAL", "isoid": "JAL", "key": "JAL", "lang": "es", "name": "Jalisco", "zip": "4[4-9]", "zipex": "44000,49999"}, "MX/MEX": {"id": "data/MX/MEX", "isoid": "MEX", "key": "MEX", "lang": "es", "name": "Estado de México", "zip": "5[0-7]", "zipex": "50000,57999"}, "MX/MICH": {"id": "data/MX/MICH", "isoid": "MIC", "key": "MICH", "lang": "es", "name": "Michoacán", "zip": "5[89]|6[01]", "zipex": "58000,61999"}, "MX/MOR": {"id": "data/MX/MOR", "isoid": "MOR", "key": "MOR", "lang": "es", "name": "Morelos", "zip": "62", "zipex": "62000,62999"}, "MX/NAY": {"id": "data/MX/NAY", "isoid": "NAY", "key": "NAY", "lang": "es", "name": "Nayarit", "zip": "63", "zipex": "63000,63999"}, "MX/NL": {"id": "data/MX/NL", "isoid": "NLE", "key": "NL", "lang": "es", "name": "Nuevo León", "zip": "6[4-7]", "zipex": "64000,67999"}, "MX/OAX": {"id": "data/MX/OAX", "isoid": "OAX", "key": "OAX", "lang": "es", "name": "Oaxaca", "zip": "6[89]|7[01]", "zipex": "68000,71999"}, "MX/PUE": {"id": "data/MX/PUE", "isoid": "PUE", "key": "PUE", "lang": "es", "name": "Puebla", "zip": "7[2-5]", "zipex": "72000,75999"}, "MX/QRO": {"id": "data/MX/QRO", "isoid": "QUE", "key": "QRO", "lang": "es", "name": "Querétaro", "zip": "76", "zipex": "76000,76999"}, "MX/QROO": {"id": "data/MX/QROO", "isoid": "ROO", "key": "QROO", "lang": "es", "name": "Quintana Roo", "zip": "77", "zipex": "77000,77999"}, "MX/SIN": {"id": "data/MX/SIN", "isoid": "SIN", "key": "SIN", "lang": "es", "name": "Sinaloa", "zip": "8[0-2]", "zipex": "80000,82999"}, "MX/SLP": {"id": "data/MX/SLP", "isoid": "SLP", "key": "SLP", "lang": "es", "name": "San Luis Potosí", "zip": "7[89]", "zipex": "78000,79999"}, "MX/SON": {"id": "data/MX/SON", "isoid": "SON", "key": "SON", "lang": "es", "name": "Sonora", "zip": "8[3-5]", "zipex": "83000,85999"}, "MX/TAB": {"id": "data/MX/TAB", "isoid": "TAB", "key": "TAB", "lang": "es", "name": "Tabasco", "zip": "86", "zipex": "86000,86999"}, "MX/TAMPS": {"id": "data/MX/TAMPS", "isoid": "TAM", "key": "TAMPS", "lang": "es", "name": "Tamaulipas", "zip": "8[7-9]", "zipex": "87000,89999"}, "MX/TLAX": {"id": "data/MX/TLAX", "isoid": "TLA", "key": "TLAX", "lang": "es", "name": "Tlaxcala", "zip": "90", "zipex": "90000,90999"}, "MX/VER": {"id": "data/MX/VER", "isoid": "VER", "key": "VER", "lang": "es", "name": "Veracruz", "zip": "9[1-6]", "zipex": "91000,96999"}, "MX/YUC": {"id": "data/MX/YUC", "isoid": "YUC", "key": "YUC", "lang": "es", "name": "Yucatán", "zip": "97", "zipex": "97000,97999"}, "MX/ZAC": {"id": "data/MX/ZAC", "isoid": "ZAC", "key": "ZAC", "lang": "es", "name": "Zacatecas", "zip": "9[89]", "zipex": "98000,99999"}}